ONEWEB-0035             
1 45143U 20008N   25211.61847768  .00000263  00000+0  71665-3 0  9993
2 45143  87.8794 100.4296 0001811  72.9356 287.1970 13.10370041265824
ONEWEB-0036             
1 45144U 20008P   25211.60851487  .00000656  00000+0  18414-2 0  9994
2 45144  87.8806 100.3743 0001806  87.0414 273.0920 13.10376980266256
ONEWEB-0038             
1 45145U 20008Q   25211.57799470  .00000135  00000+0  34438-3 0  9991
2 45145  87.8813  85.1605 0003524  69.8205 290.3302 13.11414571268176
ONEWEB-0039             
1 45146U 20008R   25211.74380064  .00000327  00000+0  90069-3 0  9991
2 45146  87.8803 100.3695 0002199  87.6060 272.5319 13.10383572266846
ONEWEB-0040             
1 45147U 20008S   25211.73714616 -.00000027  00000+0 -11245-3 0  9993
2 45147  87.8810 100.3989 0001863  77.8102 282.3234 13.10375765266554
ONEWEB-0043             
1 45149U 20008U   25211.43337541 -.00000134  00000+0 -41976-3 0  9993
2 45149  87.8805 100.4440 0001854  91.2546 268.8794 13.10376172266042
ONEWEB-0044             
1 45150U 20008V   25211.61433450  .00000464  00000+0  12935-2 0  9997
2 45150  87.8797 100.3995 0001863  85.8879 274.2461 13.10371764266365
ONEWEB-0045             
1 45151U 20008W   25211.57275427  .00000358  00000+0  97410-3 0  9995
2 45151  87.8810  85.1345 0001897  79.1823 280.9518 13.11415136268253
ONEWEB-0047             
1 45152U 20008X   25211.60769580  .00000630  00000+0  17690-2 0  9992
2 45152  87.8801 100.4103 0001882  79.5975 280.5365 13.10372051266085
ONEWEB-0048             
1 45153U 20008Y   25211.22093008  .00000682  00000+0  19174-2 0  9992
2 45153  87.8805 100.5116 0001831  79.4738 280.6596 13.10374011265641
ONEWEB-0049             
1 45154U 20008Z   25211.60521106  .00000677  00000+0  19019-2 0  9992
2 45154  87.8799 100.4283 0001417  88.9667 271.1622 13.10373186265911
ONEWEB-0051             
1 45155U 20008AA  25211.57106456  .00000417  00000+0  11420-2 0  9996
2 45155  87.8805  85.1782 0001749  77.0451 283.0872 13.11415076268931
ONEWEB-0052             
1 45156U 20008AB  25211.60021981  .00000636  00000+0  17863-2 0  9990
2 45156  87.8819 100.3750 0001473  93.7819 266.3476 13.10374328265821
ONEWEB-0053             
1 45157U 20008AC  25211.43006514 -.00000047  00000+0 -17167-3 0  9993
2 45157  87.8806 100.4673 0002139  81.4676 278.6693 13.10377600265775
ONEWEB-0054             
1 45158U 20008AD  25211.61764911  .00000331  00000+0  91121-3 0  9992
2 45158  87.8797 100.4038 0001723  76.9194 283.2125 13.10371279265916
ONEWEB-0056             
1 45159U 20008AE  25211.59856066  .00000558  00000+0  15616-2 0  9998
2 45159  87.8802 100.4045 0001794  78.4646 281.6682 13.10373556266066
ONEWEB-0057             
1 45160U 20008AF  25211.60603946  .00000650  00000+0  18254-2 0  9993
2 45160  87.8802 100.4168 0001794  82.8654 277.2678 13.10373320266236
