[{"OBJECT_NAME":"ONEWEB-0035","OBJECT_ID":"2020-008N","EPOCH":"2025-07-30T14:50:36.471552","MEAN_MOTION":13.10370041,"ECCENTRICITY":0.0001811,"INCLINATION":87.8794,"RA_OF_ASC_NODE":100.4296,"ARG_OF_PERICENTER":72.9356,"MEAN_ANOMALY":287.197,"EPHEMERIS_TYPE":0,"CLASSIFICATION_TYPE":"U","NORAD_CAT_ID":45143,"ELEMENT_SET_NO":999,"REV_AT_EPOCH":26582,"BSTAR":0.00071665,"MEAN_MOTION_DOT":2.63e-6,"MEAN_MOTION_DDOT":0},{"OBJECT_NAME":"ONEWEB-0036","OBJECT_ID":"2020-008P","EPOCH":"2025-07-30T14:36:15.684768","MEAN_MOTION":13.1037698,"ECCENTRICITY":0.0001806,"INCLINATION":87.8806,"RA_OF_ASC_NODE":100.3743,"ARG_OF_PERICENTER":87.0414,"MEAN_ANOMALY":273.092,"EPHEMERIS_TYPE":0,"CLASSIFICATION_TYPE":"U","NORAD_CAT_ID":45144,"ELEMENT_SET_NO":999,"REV_AT_EPOCH":26625,"BSTAR":0.0018414,"MEAN_MOTION_DOT":6.56e-6,"MEAN_MOTION_DDOT":0},{"OBJECT_NAME":"ONEWEB-0038","OBJECT_ID":"2020-008Q","EPOCH":"2025-07-30T13:52:18.742080","MEAN_MOTION":13.11414571,"ECCENTRICITY":0.0003524,"INCLINATION":87.8813,"RA_OF_ASC_NODE":85.1605,"ARG_OF_PERICENTER":69.8205,"MEAN_ANOMALY":290.3302,"EPHEMERIS_TYPE":0,"CLASSIFICATION_TYPE":"U","NORAD_CAT_ID":45145,"ELEMENT_SET_NO":999,"REV_AT_EPOCH":26817,"BSTAR":0.00034438,"MEAN_MOTION_DOT":1.35e-6,"MEAN_MOTION_DDOT":0},{"OBJECT_NAME":"ONEWEB-0039","OBJECT_ID":"2020-008R","EPOCH":"2025-07-30T17:51:04.375296","MEAN_MOTION":13.10383572,"ECCENTRICITY":0.0002199,"INCLINATION":87.8803,"RA_OF_ASC_NODE":100.3695,"ARG_OF_PERICENTER":87.606,"MEAN_ANOMALY":272.5319,"EPHEMERIS_TYPE":0,"CLASSIFICATION_TYPE":"U","NORAD_CAT_ID":45146,"ELEMENT_SET_NO":999,"REV_AT_EPOCH":26684,"BSTAR":0.00090069,"MEAN_MOTION_DOT":3.27e-6,"MEAN_MOTION_DDOT":0},{"OBJECT_NAME":"ONEWEB-0040","OBJECT_ID":"2020-008S","EPOCH":"2025-07-30T17:41:29.428224","MEAN_MOTION":13.10375765,"ECCENTRICITY":0.0001863,"INCLINATION":87.881,"RA_OF_ASC_NODE":100.3989,"ARG_OF_PERICENTER":77.8102,"MEAN_ANOMALY":282.3234,"EPHEMERIS_TYPE":0,"CLASSIFICATION_TYPE":"U","NORAD_CAT_ID":45147,"ELEMENT_SET_NO":999,"REV_AT_EPOCH":26655,"BSTAR":-0.00011245,"MEAN_MOTION_DOT":-2.7e-7,"MEAN_MOTION_DDOT":0},{"OBJECT_NAME":"ONEWEB-0043","OBJECT_ID":"2020-008U","EPOCH":"2025-07-30T10:24:03.635424","MEAN_MOTION":13.10376172,"ECCENTRICITY":0.0001854,"INCLINATION":87.8805,"RA_OF_ASC_NODE":100.444,"ARG_OF_PERICENTER":91.2546,"MEAN_ANOMALY":268.8794,"EPHEMERIS_TYPE":0,"CLASSIFICATION_TYPE":"U","NORAD_CAT_ID":45149,"ELEMENT_SET_NO":999,"REV_AT_EPOCH":26604,"BSTAR":-0.00041976,"MEAN_MOTION_DOT":-1.34e-6,"MEAN_MOTION_DDOT":0},{"OBJECT_NAME":"ONEWEB-0044","OBJECT_ID":"2020-008V","EPOCH":"2025-07-30T14:44:38.500800","MEAN_MOTION":13.10371764,"ECCENTRICITY":0.0001863,"INCLINATION":87.8797,"RA_OF_ASC_NODE":100.3995,"ARG_OF_PERICENTER":85.8879,"MEAN_ANOMALY":274.2461,"EPHEMERIS_TYPE":0,"CLASSIFICATION_TYPE":"U","NORAD_CAT_ID":45150,"ELEMENT_SET_NO":999,"REV_AT_EPOCH":26636,"BSTAR":0.0012935,"MEAN_MOTION_DOT":4.64e-6,"MEAN_MOTION_DDOT":0},{"OBJECT_NAME":"ONEWEB-0045","OBJECT_ID":"2020-008W","EPOCH":"2025-07-30T13:44:45.968928","MEAN_MOTION":13.11415136,"ECCENTRICITY":0.0001897,"INCLINATION":87.881,"RA_OF_ASC_NODE":85.1345,"ARG_OF_PERICENTER":79.1823,"MEAN_ANOMALY":280.9518,"EPHEMERIS_TYPE":0,"CLASSIFICATION_TYPE":"U","NORAD_CAT_ID":45151,"ELEMENT_SET_NO":999,"REV_AT_EPOCH":26825,"BSTAR":0.0009741,"MEAN_MOTION_DOT":3.58e-6,"MEAN_MOTION_DDOT":0},{"OBJECT_NAME":"ONEWEB-0047","OBJECT_ID":"2020-008X","EPOCH":"2025-07-30T14:35:04.917120","MEAN_MOTION":13.10372051,"ECCENTRICITY":0.0001882,"INCLINATION":87.8801,"RA_OF_ASC_NODE":100.4103,"ARG_OF_PERICENTER":79.5975,"MEAN_ANOMALY":280.5365,"EPHEMERIS_TYPE":0,"CLASSIFICATION_TYPE":"U","NORAD_CAT_ID":45152,"ELEMENT_SET_NO":999,"REV_AT_EPOCH":26608,"BSTAR":0.001769,"MEAN_MOTION_DOT":6.3e-6,"MEAN_MOTION_DDOT":0},{"OBJECT_NAME":"ONEWEB-0048","OBJECT_ID":"2020-008Y","EPOCH":"2025-07-30T05:18:08.358912","MEAN_MOTION":13.10374011,"ECCENTRICITY":0.0001831,"INCLINATION":87.8805,"RA_OF_ASC_NODE":100.5116,"ARG_OF_PERICENTER":79.4738,"MEAN_ANOMALY":280.6596,"EPHEMERIS_TYPE":0,"CLASSIFICATION_TYPE":"U","NORAD_CAT_ID":45153,"ELEMENT_SET_NO":999,"REV_AT_EPOCH":26564,"BSTAR":0.0019174,"MEAN_MOTION_DOT":6.82e-6,"MEAN_MOTION_DDOT":0},{"OBJECT_NAME":"ONEWEB-0049","OBJECT_ID":"2020-008Z","EPOCH":"2025-07-30T14:31:30.235584","MEAN_MOTION":13.10373186,"ECCENTRICITY":0.0001417,"INCLINATION":87.8799,"RA_OF_ASC_NODE":100.4283,"ARG_OF_PERICENTER":88.9667,"MEAN_ANOMALY":271.1622,"EPHEMERIS_TYPE":0,"CLASSIFICATION_TYPE":"U","NORAD_CAT_ID":45154,"ELEMENT_SET_NO":999,"REV_AT_EPOCH":26591,"BSTAR":0.0019019,"MEAN_MOTION_DOT":6.77e-6,"MEAN_MOTION_DDOT":0},{"OBJECT_NAME":"ONEWEB-0051","OBJECT_ID":"2020-008AA","EPOCH":"2025-07-30T13:42:19.977984","MEAN_MOTION":13.11415076,"ECCENTRICITY":0.0001749,"INCLINATION":87.8805,"RA_OF_ASC_NODE":85.1782,"ARG_OF_PERICENTER":77.0451,"MEAN_ANOMALY":283.0872,"EPHEMERIS_TYPE":0,"CLASSIFICATION_TYPE":"U","NORAD_CAT_ID":45155,"ELEMENT_SET_NO":999,"REV_AT_EPOCH":26893,"BSTAR":0.001142,"MEAN_MOTION_DOT":4.17e-6,"MEAN_MOTION_DDOT":0},{"OBJECT_NAME":"ONEWEB-0052","OBJECT_ID":"2020-008AB","EPOCH":"2025-07-30T14:24:18.991584","MEAN_MOTION":13.10374328,"ECCENTRICITY":0.0001473,"INCLINATION":87.8819,"RA_OF_ASC_NODE":100.375,"ARG_OF_PERICENTER":93.7819,"MEAN_ANOMALY":266.3476,"EPHEMERIS_TYPE":0,"CLASSIFICATION_TYPE":"U","NORAD_CAT_ID":45156,"ELEMENT_SET_NO":999,"REV_AT_EPOCH":26582,"BSTAR":0.0017863,"MEAN_MOTION_DOT":6.36e-6,"MEAN_MOTION_DDOT":0},{"OBJECT_NAME":"ONEWEB-0053","OBJECT_ID":"2020-008AC","EPOCH":"2025-07-30T10:19:17.628096","MEAN_MOTION":13.103776,"ECCENTRICITY":0.0002139,"INCLINATION":87.8806,"RA_OF_ASC_NODE":100.4673,"ARG_OF_PERICENTER":81.4676,"MEAN_ANOMALY":278.6693,"EPHEMERIS_TYPE":0,"CLASSIFICATION_TYPE":"U","NORAD_CAT_ID":45157,"ELEMENT_SET_NO":999,"REV_AT_EPOCH":26577,"BSTAR":-0.00017167,"MEAN_MOTION_DOT":-4.7e-7,"MEAN_MOTION_DDOT":0},{"OBJECT_NAME":"ONEWEB-0054","OBJECT_ID":"2020-008AD","EPOCH":"2025-07-30T14:49:24.883104","MEAN_MOTION":13.10371279,"ECCENTRICITY":0.0001723,"INCLINATION":87.8797,"RA_OF_ASC_NODE":100.4038,"ARG_OF_PERICENTER":76.9194,"MEAN_ANOMALY":283.2125,"EPHEMERIS_TYPE":0,"CLASSIFICATION_TYPE":"U","NORAD_CAT_ID":45158,"ELEMENT_SET_NO":999,"REV_AT_EPOCH":26591,"BSTAR":0.00091121,"MEAN_MOTION_DOT":3.31e-6,"MEAN_MOTION_DDOT":0},{"OBJECT_NAME":"ONEWEB-0056","OBJECT_ID":"2020-008AE","EPOCH":"2025-07-30T14:21:55.641024","MEAN_MOTION":13.10373556,"ECCENTRICITY":0.0001794,"INCLINATION":87.8802,"RA_OF_ASC_NODE":100.4045,"ARG_OF_PERICENTER":78.4646,"MEAN_ANOMALY":281.6682,"EPHEMERIS_TYPE":0,"CLASSIFICATION_TYPE":"U","NORAD_CAT_ID":45159,"ELEMENT_SET_NO":999,"REV_AT_EPOCH":26606,"BSTAR":0.0015616,"MEAN_MOTION_DOT":5.58e-6,"MEAN_MOTION_DDOT":0},{"OBJECT_NAME":"ONEWEB-0057","OBJECT_ID":"2020-008AF","EPOCH":"2025-07-30T14:32:41.809344","MEAN_MOTION":13.1037332,"ECCENTRICITY":0.0001794,"INCLINATION":87.8802,"RA_OF_ASC_NODE":100.4168,"ARG_OF_PERICENTER":82.8654,"MEAN_ANOMALY":277.2678,"EPHEMERIS_TYPE":0,"CLASSIFICATION_TYPE":"U","NORAD_CAT_ID":45160,"ELEMENT_SET_NO":999,"REV_AT_EPOCH":26623,"BSTAR":0.0018254,"MEAN_MOTION_DOT":6.5e-6,"MEAN_MOTION_DDOT":0}]
